ID,Address,Suburb,Price,Type,Date,Rooms,Bathroom,Car,Landsize,Age,Lattitude,Longtitude,train_station_id,distance_to_train_station,travel_min_to_CBD,over_priced?,crime_A_average,crime_B_average,crime_C_average
ID396568662,11 Farringdon St,PASCOE VALE,1000000.0,h,22/08/2016,3,1.0,2.0,858.0,24.0,-37.7273,144.9254,20034,455.92846059185626,31.0,1,659,5219,338
ID182235144,55 Elphinstone St,WEST FOOTSCRAY,805000.0,h,27/06/2016,3,1.0,3.0,372.0,99.0,-37.796,144.8728,20022,939.980432157677,21.4,0,268,736,128
ID467850625,5/8 Murray St,BRUNSWICK WEST,500000.0,u,16/07/2016,2,1.0,1.0,0.0,49.0,-37.7595,144.9436,19967,1517.769130579555,27.333333333333332,1,958,5673,628
ID630505651,4 Anchor Pl,PRAHRAN,1805000.0,h,17/06/2017,4,2.0,1.0,105.0,4.0,-37.85102,144.99408,19958,407.08964967056886,13.5,0,705,5479,335
ID987385123,112 Johnston St,NEWPORT,1230000.0,h,24/06/2017,3,1.0,1.0,396.0,119.0,-37.8363,144.87588,19994,984.45379761324,16.310344827586206,0,84,293,23
ID616683774,122 Stephen St,YARRAVILLE,510000.0,u,11/02/2017,1,1.0,2.0,0.0,15.0,-37.8173,144.894,19996,392.52849505163647,11.357142857142858,0,817,1779,181
ID757342373,129 Liberty Pde,BELLFIELD,625000.0,h,28/05/2016,3,1.0,2.0,609.0,69.0,-37.7504,145.0335,19933,2306.296728506526,26.058823529411764,0,703,1502,135
ID116355661,4 Wannan Ct,CLAYTON SOUTH,800000.0,h,23/09/2017,3,1.0,2.0,602.0,39.0,-37.94146,145.11121,22249,2034.6496785437314,33.666666666666664,0,84,371,13
ID776695029,26 Leila Rd,CARNEGIE,1716000.0,h,28/08/2016,3,2.0,1.0,817.0,94.0,-37.9007,145.047,19941,706.9351326654734,32.15384615384615,0,3703,18944,2039
ID600358526,8a Anderson St,MALVERN EAST,1420000.0,h,22/08/2016,2,1.0,1.0,348.0,49.0,-37.8672,145.0432,22248,1140.2879520538675,19.5,1,610,1743,228
ID696369446,3/26 Ross St,ELSTERNWICK,800000.0,h,10/12/2016,3,2.0,2.0,331.0,9.0,-37.8847,144.9992,19954,149.47782337138062,21.5,0,1566,8895,491
ID326067637,1/1 Clarendon St,MAIDSTONE,650000.0,t,8/07/2017,3,2.0,2.0,159.0,3.0,-37.78502,144.86733,20022,1626.0605796673824,21.4,0,717,1763,318
ID765895259,3/1 Elm St,HAWTHORN,480000.0,u,13/08/2016,1,1.0,1.0,0.0,79.0,-37.8128,145.0171,19905,1124.4262749277354,13.952380952380953,1,1150,7827,922
ID202530114,24 Robert St,BULLEEN,1300000.0,h,10/12/2016,4,3.0,1.0,604.0,59.0,-37.7621,145.086,19935,2299.3956492641705,29.823529411764707,0,958,5673,628
ID939598512,1101/265 Exhibition St,MELBOURNE,895000.0,u,22/04/2017,3,2.0,3.0,0.0,13.0,-37.8095,144.9691,19843,377.31713235272696,6.100558659217877,0,313,545,65
ID965101638,3/14 Weir St,BALWYN,1385000.0,t,25/02/2017,3,2.0,2.0,190.0,59.0,-37.8164,145.0846,19893,945.339124948373,23.76923076923077,0,959,4476,324
ID595538136,44 McLean Av,BENTLEIGH,1300000.0,h,26/08/2017,3,2.0,2.0,566.0,59.0,-37.91469,145.02789,19939,856.2396302093746,35.15384615384615,0,959,4476,324
ID990355952,6/229 Brighton Rd,ELWOOD,696750.0,u,3/06/2017,2,1.0,1.0,0.0,89.0,-37.88094,144.99471,19955,560.6145845229031,19.5,0,1666,9333,523
ID634535284,35 Finningley Dr,TULLAMARINE,695000.0,h,27/05/2017,3,1.0,2.0,676.0,39.0,-37.69636,144.88265,20031,2931.2665432956874,38.0,0,256,511,54
ID431077528,91 Radnor St,CAMBERWELL,2030000.0,h,28/05/2016,4,2.0,2.0,686.0,59.0,-37.8458,145.0611,19850,1288.5446045302442,26.666666666666668,0,3703,18944,2039
ID145566530,3 Donald St,SUNSHINE,816000.0,h,15/10/2016,3,1.0,1.0,511.0,61.0,-37.7906,144.8387,22241,561.6304807910395,15.85,0,1363,6287,564
ID487928981,38 Agnew St,BRIGHTON EAST,1710000.0,h,17/09/2016,3,3.0,2.0,435.0,104.0,-37.91,145.0113,19952,952.2348464868543,24.5,0,2744,10289,780
ID367887803,11 Vincent St,COBURG,951000.0,h,27/11/2016,3,2.0,0.0,342.0,139.0,-37.743,144.95600000000005,19965,650.6873519973349,32.0,0,1071,5783,419
ID846668143,39 Thoresby Gr,IVANHOE,3020000.0,h,8/04/2017,4,2.0,1.0,1250.0,109.0,-37.7639,145.0506,19934,296.59703308729473,29.0,0,591,1189,177
ID710144671,15 Hardwick St,COBURG,1020000.0,h,25/02/2017,5,2.0,4.0,381.0,34.0,-37.7492,144.969,19966,862.6190458665181,30.0,0,1097,5916,553
ID235673101,1/4 Pepino Ct,WERRIBEE,467000.0,h,3/06/2017,3,2.0,1.0,268.0,11.0,-37.89347,144.66679,19921,823.9587652007527,35.142857142857146,0,98,190,19
ID953922293,43 Gloucester St,RESERVOIR,890000.0,h,10/09/2016,3,2.0,2.0,634.0,19.0,-37.7199,144.9965,20010,984.0384878198804,34.2,0,824,1890,159
ID643614623,2/36 Empire St,FOOTSCRAY,310000.0,u,17/09/2016,2,1.0,1.0,0.0,6.0,-37.7878,144.8919,20024,1632.547508360059,17.4,0,1923,8979,620
ID706290188,2/30 Fontein St,WEST FOOTSCRAY,545000.0,u,18/03/2017,2,1.0,1.0,154.0,14.0,-37.8004,144.8647,20022,200.39621945148232,21.4,0,298,735,154
ID505552790,3 Maralee Pl,DONCASTER,1850000.0,h,7/11/2016,3,1.0,2.0,1073.0,59.0,-37.7772,145.1157,20042,4691.307639372663,25.775,1,1566,8895,491
ID226811853,96 Roden St,WEST MELBOURNE,2370000.0,h,4/06/2016,3,3.0,2.0,265.0,139.0,-37.8073,144.9481,22239,590.6308031757591,7.0,0,584,2731,211
ID432907951,52 Brighton St,RICHMOND,1506000.0,h,7/05/2016,2,2.0,1.0,220.0,99.0,-37.8284,144.9989,19906,767.6550882664156,11.904761904761905,0,824,1890,159
ID624441685,2/635 Malvern Rd,TOORAK,876000.0,u,4/03/2017,2,1.0,1.0,649.0,84.0,-37.8486,145.00799999999995,19946,573.2705032495376,18.214285714285715,0,647,2861,222
ID228081354,15 Byron St,CLAYTON SOUTH,985000.0,h,9/09/2017,3,1.0,2.0,674.0,69.0,-37.93539000000001,145.11986000000005,22249,1189.9526714606993,33.666666666666664,1,84,371,13
ID946972942,10/5 St David St,FITZROY,850000.0,u,22/05/2016,3,2.0,1.0,2782.0,19.0,-37.8005,144.9787,19843,1277.551741115783,6.100558659217877,0,334,1407,88
ID269174386,11 Page St,CLIFTON HILL,1370000.0,h,13/08/2016,3,2.0,1.0,176.0,129.0,-37.7921,144.9898,19974,625.1044104325131,15.142857142857142,0,1071,5783,419
ID601561027,12 Mell St,TOORAK,1900000.0,h,25/02/2017,2,2.0,0.0,218.0,14.0,-37.847,145.0064,19947,460.38242355220996,16.214285714285715,0,647,2861,222
ID999509620,16 Wendora St,STRATHMORE,1075000.0,h,24/09/2016,3,2.0,1.0,752.0,19.0,-37.7303,144.9198,20034,741.8266919736152,31.0,0,1363,6287,564
ID792429107,4/49 Seymour Rd,ELSTERNWICK,1200000.0,t,22/07/2017,3,1.0,2.0,1405.0,54.0,-37.88065,145.01112,19954,1008.0092027394492,21.5,0,1666,9333,523
ID248471367,33 Burrows St,BRIGHTON,1410000.0,h,19/11/2016,3,1.0,1.0,375.0,89.0,-37.9175,144.9949,19951,289.9612280481053,26.5,0,2744,10289,780
ID994619526,30 Cobram St,TARNEIT,530000.0,h,22/07/2017,3,2.0,2.0,400.0,10.0,-37.83353,144.67324,47648,1896.4547735452736,32.09090909090909,0,1479,4398,502
ID399370368,33 Haynes St,HIGHETT,1820000.0,h,8/07/2017,4,2.0,2.0,680.0,13.0,-37.94882,145.03111,19872,946.9097837655877,40.166666666666664,1,2837,9343,1212
ID959007253,2/422 St Kilda St,BRIGHTON,1475000.0,t,7/11/2016,3,2.0,2.0,345.0,19.0,-37.8943,144.9907,19953,1214.104088296737,23.5,0,2744,10289,780
ID731645331,1/1 Perry St,MOORABBIN,1105000.0,t,30/07/2016,4,2.0,2.0,220.0,4.0,-37.9387,145.0398,19937,552.4613767322418,38.266666666666666,0,71,261,20
ID955371592,5/33 Goodwood St,RICHMOND,630000.0,u,8/07/2017,2,1.0,1.0,0.0,49.0,-37.81977,144.99597,19978,668.3104403189064,9.125,0,885,1901,227
ID137333986,44 Challis St,NEWPORT,800000.0,h,4/03/2017,2,1.0,1.0,244.0,79.0,-37.846,144.8729,19994,1009.7966377540399,16.310344827586206,0,84,293,23
ID472390759,301/89 River St,SOUTH YARRA,930000.0,u,3/09/2016,2,2.0,2.0,0.0,19.0,-37.8361,144.9966,19959,456.5846003270482,12.543859649122806,0,1100,3636,457
ID764765466,21a Station Rd,WILLIAMSTOWN,935000.0,t,16/04/2016,3,2.0,1.0,233.0,17.0,-37.8573,144.8911,19993,178.73046691474372,20.857142857142858,0,1002,4068,328
ID734868535,25 Allan St,ALTONA NORTH,875000.0,h,8/10/2016,4,1.0,4.0,559.0,54.0,-37.8448,144.8529,19994,2712.0269892758365,16.310344827586206,0,2489,11817,1268
ID960511844,44/100 Commercial Rd,SOUTH YARRA,940000.0,u,12/08/2017,3,2.0,3.0,0.0,89.0,-37.8453,144.98487,19958,641.9633348556625,13.5,0,1245,3886,447
ID755883072,5/143 Canterbury Rd,MIDDLE PARK,400000.0,u,8/10/2016,1,1.0,1.0,0.0,89.0,-37.8522,144.9678,19958,1964.1757977203004,13.5,0,278,489,65
ID881593158,2/360 Carlisle St,BALACLAVA,820000.0,u,19/11/2016,2,1.0,1.0,0.0,59.0,-37.8691,144.9974,19956,344.78541542048794,17.5,0,1654,9119,550
ID984547763,34 Tindales Rd,WOLLERT,400000.0,h,22/07/2017,3,2.0,1.0,213.0,4.0,-37.60983,145.03874,20005,4784.266698736913,45.22222222222222,0,2524,12864,738
ID464685590,29 Elliott Cr,DINGLEY VILLAGE,800000.0,h,15/07/2017,3,2.0,4.0,801.0,39.0,-37.98596,145.13187,19891,4252.946925787252,41.46153846153846,0,3327,11071,1069
ID474719080,14 Arthur St,PRESTON,1065000.0,h,15/10/2016,2,1.0,3.0,507.0,109.0,-37.7437,144.9995,20013,214.5917319295294,26.3,0,659,5219,338
ID428329819,6 Ibis Pl,MARIBYRNONG,1230000.0,h,28/08/2016,4,3.0,2.0,270.0,10.0,-37.7847,144.8962,20025,1920.0493141110762,10.18918918918919,0,610,1743,228
ID721140203,24 Home St,RESERVOIR,1162000.0,h,27/11/2016,4,3.0,4.0,695.0,59.0,-37.7264,145.0198,20011,1517.4508385781367,31.2,0,824,1890,159
ID452493639,85 Martins La,VIEWBANK,920250.0,h,4/03/2017,4,2.0,2.0,558.0,49.0,-37.7328,145.0916,19983,2118.1578130726107,34.75,0,647,2861,222
ID917912718,3/14 Malane St,BENTLEIGH EAST,750000.0,h,18/06/2016,3,2.0,1.0,188.0,9.0,-37.9193,145.0553,19939,1622.9471764208197,35.15384615384615,0,925,4701,308
ID424312484,23 Cromwell St,GLENROY,660000.0,h,28/08/2016,3,1.0,2.0,657.0,69.0,-37.7019,144.9225,20032,549.8971099465912,36.0,0,1683,8938,509
ID400247346,84 Chestnut St,CREMORNE,831000.0,h,22/05/2016,2,1.0,0.0,128.0,4.0,-37.8291,144.9952,22247,712.5262972415125,10.0,0,888,2196,181
ID683806090,41 Highfield Rd,DONCASTER EAST,1209000.0,h,9/09/2017,3,1.0,2.0,635.0,49.0,-37.78649,145.16773999999995,19899,3838.3411635637385,31.666666666666668,0,3327,11071,1069
ID795900316,43 Oswin St,KEW EAST,2490000.0,h,3/09/2016,4,2.0,2.0,712.0,129.0,-37.7936,145.0566,19932,2612.9828414133335,26.0,0,271,771,74
ID444281555,32 Luckins Rd,BENTLEIGH,1135000.0,h,8/10/2016,3,1.0,2.0,627.0,71.0,-37.9321,145.0472,19937,953.1104877605576,38.266666666666666,1,925,4701,308
ID127106007,9 Lyric St,MARIBYRNONG,1117000.0,h,25/02/2017,4,3.0,2.0,325.0,14.0,-37.7822,144.8922,20024,2254.5817191173237,17.4,0,717,1763,318
